CCSDS_OMM_VERS = 2.0
CREATION_DATE  = 
ORIGINATOR     = 

OBJECT_NAME    = SILVERSAT
OBJECT_ID      = 1998-067XV
CENTER_NAME    = EARTH
REF_FRAME      = TEME
TIME_SYSTEM    = UTC
MEAN_ELEMENT_THEORY = SGP/SGP4

EPOCH          = 2026-02-07T11:33:07.498656
MEAN_MOTION    = 15.62750268
ECCENTRICITY   = .00025516
INCLINATION    = 51.6271
RA_OF_ASC_NODE = 218.4396
ARG_OF_PERICENTER = 229.2815
MEAN_ANOMALY   = 130.7958

EPHEMERIS_TYPE = 0
CLASSIFICATION_TYPE = U
NORAD_CAT_ID   = 66909
ELEMENT_SET_NO = 999
REV_AT_EPOCH   = 1045
BSTAR          = .17343375E-2
MEAN_MOTION_DOT = .161676E-2
MEAN_MOTION_DDOT = 0

CCSDS_OMM_VERS = 2.0
CREATION_DATE  = 
ORIGINATOR     = 

OBJECT_NAME    = ISS OBJECT XW
OBJECT_ID      = 1998-067XW
CENTER_NAME    = EARTH
REF_FRAME      = TEME
TIME_SYSTEM    = UTC
MEAN_ELEMENT_THEORY = SGP/SGP4

EPOCH          = 2026-02-06T17:27:41.102784
MEAN_MOTION    = 15.61211268
ECCENTRICITY   = .00009584
INCLINATION    = 51.6257
RA_OF_ASC_NODE = 222.4006
ARG_OF_PERICENTER = 240.3067
MEAN_ANOMALY   = 119.7831

EPHEMERIS_TYPE = 0
CLASSIFICATION_TYPE = U
NORAD_CAT_ID   = 66910
ELEMENT_SET_NO = 999
REV_AT_EPOCH   = 1033
BSTAR          = .13119254E-2
MEAN_MOTION_DOT = .114383E-2
MEAN_MOTION_DDOT = 0

CCSDS_OMM_VERS = 2.0
CREATION_DATE  = 
ORIGINATOR     = 

OBJECT_NAME    = ISS OBJECT XX
OBJECT_ID      = 1998-067XX
CENTER_NAME    = EARTH
REF_FRAME      = TEME
TIME_SYSTEM    = UTC
MEAN_ELEMENT_THEORY = SGP/SGP4

EPOCH          = 2026-02-06T17:59:20.753664
MEAN_MOTION    = 15.63735398
ECCENTRICITY   = .0002423
INCLINATION    = 51.6250
RA_OF_ASC_NODE = 221.7970
ARG_OF_PERICENTER = 254.7739
MEAN_ANOMALY   = 105.2988

EPHEMERIS_TYPE = 0
CLASSIFICATION_TYPE = U
NORAD_CAT_ID   = 66911
ELEMENT_SET_NO = 999
REV_AT_EPOCH   = 1033
BSTAR          = .15986426E-2
MEAN_MOTION_DOT = .154731E-2
MEAN_MOTION_DDOT = 0

CCSDS_OMM_VERS = 2.0
CREATION_DATE  = 
ORIGINATOR     = 

OBJECT_NAME    = ISS OBJECT XY
OBJECT_ID      = 1998-067XY
CENTER_NAME    = EARTH
REF_FRAME      = TEME
TIME_SYSTEM    = UTC
MEAN_ELEMENT_THEORY = SGP/SGP4

EPOCH          = 2026-02-07T11:48:29.801376
MEAN_MOTION    = 15.58567239
ECCENTRICITY   = .00011188
INCLINATION    = 51.6282
RA_OF_ASC_NODE = 219.2626
ARG_OF_PERICENTER = 161.1968
MEAN_ANOMALY   = 198.9066

EPHEMERIS_TYPE = 0
CLASSIFICATION_TYPE = U
NORAD_CAT_ID   = 66912
ELEMENT_SET_NO = 999
REV_AT_EPOCH   = 1043
BSTAR          = .12349282E-2
MEAN_MOTION_DOT = .97064E-3
MEAN_MOTION_DDOT = 0

CCSDS_OMM_VERS = 2.0
CREATION_DATE  = 
ORIGINATOR     = 

OBJECT_NAME    = ISS OBJECT XZ
OBJECT_ID      = 1998-067XZ
CENTER_NAME    = EARTH
REF_FRAME      = TEME
TIME_SYSTEM    = UTC
MEAN_ELEMENT_THEORY = SGP/SGP4

EPOCH          = 2026-02-07T15:06:45.903744
MEAN_MOTION    = 15.49399547
ECCENTRICITY   = .00110529
INCLINATION    = 51.6308
RA_OF_ASC_NODE = 220.9279
ARG_OF_PERICENTER = 90.0422
MEAN_ANOMALY   = 270.1833

EPHEMERIS_TYPE = 0
CLASSIFICATION_TYPE = U
NORAD_CAT_ID   = 67683
ELEMENT_SET_NO = 999
REV_AT_EPOCH   = 12
BSTAR          = .82569538E-3
MEAN_MOTION_DOT = .4605E-3
MEAN_MOTION_DDOT = 0

CCSDS_OMM_VERS = 2.0
CREATION_DATE  = 
ORIGINATOR     = 

OBJECT_NAME    = ISS OBJECT YA
OBJECT_ID      = 1998-067YA
CENTER_NAME    = EARTH
REF_FRAME      = TEME
TIME_SYSTEM    = UTC
MEAN_ELEMENT_THEORY = SGP/SGP4

EPOCH          = 2026-02-07T15:05:45.711456
MEAN_MOTION    = 15.49787498
ECCENTRICITY   = .00131034
INCLINATION    = 51.6309
RA_OF_ASC_NODE = 220.9247
ARG_OF_PERICENTER = 85.8008
MEAN_ANOMALY   = 274.4478

EPHEMERIS_TYPE = 0
CLASSIFICATION_TYPE = U
NORAD_CAT_ID   = 67684
ELEMENT_SET_NO = 999
REV_AT_EPOCH   = 12
BSTAR          = .1386975E-2
MEAN_MOTION_DOT = .79147E-3
MEAN_MOTION_DDOT = 0

CCSDS_OMM_VERS = 2.0
CREATION_DATE  = 
ORIGINATOR     = 

OBJECT_NAME    = ISS OBJECT YB
OBJECT_ID      = 1998-067YB
CENTER_NAME    = EARTH
REF_FRAME      = TEME
TIME_SYSTEM    = UTC
MEAN_ELEMENT_THEORY = SGP/SGP4

EPOCH          = 2026-02-06T22:04:58.877760
MEAN_MOTION    = 15.49395303
ECCENTRICITY   = .00078643
INCLINATION    = 51.6312
RA_OF_ASC_NODE = 224.4405
ARG_OF_PERICENTER = 62.7877
MEAN_ANOMALY   = 297.3912

EPHEMERIS_TYPE = 0
CLASSIFICATION_TYPE = U
NORAD_CAT_ID   = 67685
ELEMENT_SET_NO = 999
REV_AT_EPOCH   = 54
BSTAR          = .85681713E-3
MEAN_MOTION_DOT = .47751E-3
MEAN_MOTION_DDOT = 0

CCSDS_OMM_VERS = 2.0
CREATION_DATE  = 
ORIGINATOR     = 

OBJECT_NAME    = ISS OBJECT YC
OBJECT_ID      = 1998-067YC
CENTER_NAME    = EARTH
REF_FRAME      = TEME
TIME_SYSTEM    = UTC
MEAN_ELEMENT_THEORY = SGP/SGP4

EPOCH          = 2026-02-07T13:33:32.482656
MEAN_MOTION    = 15.49531571
ECCENTRICITY   = .00077583
INCLINATION    = 51.6315
RA_OF_ASC_NODE = 221.2469
ARG_OF_PERICENTER = 63.0747
MEAN_ANOMALY   = 297.1033

EPHEMERIS_TYPE = 0
CLASSIFICATION_TYPE = U
NORAD_CAT_ID   = 67686
ELEMENT_SET_NO = 999
REV_AT_EPOCH   = 11
BSTAR          = .97720084E-3
MEAN_MOTION_DOT = .54837E-3
MEAN_MOTION_DDOT = 0

CCSDS_OMM_VERS = 2.0
CREATION_DATE  = 
ORIGINATOR     = 

OBJECT_NAME    = ISS OBJECT YD
OBJECT_ID      = 1998-067YD
CENTER_NAME    = EARTH
REF_FRAME      = TEME
TIME_SYSTEM    = UTC
MEAN_ELEMENT_THEORY = SGP/SGP4

EPOCH          = 2026-02-07T10:27:59.879808
MEAN_MOTION    = 15.49440924
ECCENTRICITY   = .000786
INCLINATION    = 51.6313
RA_OF_ASC_NODE = 221.8860
ARG_OF_PERICENTER = 64.4814
MEAN_ANOMALY   = 295.6987

EPHEMERIS_TYPE = 0
CLASSIFICATION_TYPE = U
NORAD_CAT_ID   = 67687
ELEMENT_SET_NO = 999
REV_AT_EPOCH   = 1
BSTAR          = .89722111E-3
MEAN_MOTION_DOT = .50121E-3
MEAN_MOTION_DDOT = 0

CCSDS_OMM_VERS = 2.0
CREATION_DATE  = 
ORIGINATOR     = 

OBJECT_NAME    = ISS OBJECT YE
OBJECT_ID      = 1998-067YE
CENTER_NAME    = EARTH
REF_FRAME      = TEME
TIME_SYSTEM    = UTC
MEAN_ELEMENT_THEORY = SGP/SGP4

EPOCH          = 2026-02-07T15:06:24.902496
MEAN_MOTION    = 15.49532401
ECCENTRICITY   = .00078269
INCLINATION    = 51.6319
RA_OF_ASC_NODE = 220.9283
ARG_OF_PERICENTER = 63.9278
MEAN_ANOMALY   = 296.2516

EPHEMERIS_TYPE = 0
CLASSIFICATION_TYPE = U
NORAD_CAT_ID   = 67688
ELEMENT_SET_NO = 999
REV_AT_EPOCH   = 4
BSTAR          = .94880104E-3
MEAN_MOTION_DOT = .53221E-3
MEAN_MOTION_DDOT = 0

