SILVERSAT               
1 66909U 98067XV  26038.48133679  .00161676  00000+0  17343-2 0  9996
2 66909  51.6271 218.4396 0002551 229.2815 130.7958 15.62750268 10454
ISS OBJECT XW           
1 66910U 98067XW  26037.72755906  .00114383  00000+0  13119-2 0  9997
2 66910  51.6257 222.4006 0000958 240.3067 119.7831 15.61211268 10330
ISS OBJECT XX           
1 66911U 98067XX  26037.74954576  .00154731  00000+0  15986-2 0  9999
2 66911  51.6250 221.7970 0002423 254.7739 105.2988 15.63735398 10330
ISS OBJECT XY           
1 66912U 98067XY  26038.49201159  .00097064  00000+0  12349-2 0  9990
2 66912  51.6282 219.2626 0001118 161.1968 198.9066 15.58567239 10439
ISS OBJECT XZ           
1 67683U 98067XZ  26038.62969796  .00046050  00000+0  82570-3 0  9992
2 67683  51.6308 220.9279 0011052  90.0422 270.1833 15.49399547   125
ISS OBJECT YA           
1 67684U 98067YA  26038.62900129  .00079147  00000+0  13870-2 0  9997
2 67684  51.6309 220.9247 0013103  85.8008 274.4478 15.49787498   121
LEOPARD                 
1 67685U 98067YB  26037.92012590  .00047751  00000+0  85682-3 0  9993
2 67685  51.6312 224.4405 0007864  62.7877 297.3912 15.49395303   549
ISS OBJECT YC           
1 67686U 98067YC  26038.56495929  .00054837  00000+0  97720-3 0  9995
2 67686  51.6315 221.2469 0007758  63.0747 297.1033 15.49531571   114
CORAL                   
1 67687U 98067YD  26038.43610972  .00050121  00000+0  89722-3 0  9994
2 67687  51.6313 221.8860 0007860  64.4814 295.6987 15.49440924    19
GXIBA-1                 
1 67688U 98067YE  26038.62945489  .00053221  00000+0  94880-3 0  9995
2 67688  51.6319 220.9283 0007826  63.9278 296.2516 15.49532401    45
